IRIDIUM 33 DEB          
1 34765U 97051LJ  26065.28117981  .00001901  00000+0  58801-3 0  9998
2 34765  86.3443 356.9123 0014811 309.8051 202.7698 14.40742850888165
IRIDIUM 33 DEB          
1 34833U 97051MH  26066.07634949  .00003854  00000+0  92670-3 0  9991
2 34833  86.3972  14.6227 0019402 166.3693 317.8044 14.53022739889390
IRIDIUM 33 DEB          
1 34870U 97051MQ  26064.86128535  .00011235  00000+0  15377-2 0  9996
2 34870  86.3053 275.9530 0014632 263.8753 155.1214 14.78351174901381
IRIDIUM 33 DEB          
1 34896U 97051MY  26064.08009451  .00005120  00000+0  90130-3 0  9990
2 34896  86.3257 289.7375 0024143 299.3757 214.4851 14.67239039888261
IRIDIUM 33 DEB          
1 34926U 97051NF  26065.44099014  .00025579  00000+0  52058-2 0  9995
2 34926  86.1324 329.3320 0079890  11.6389  42.1013 14.58903834876752
IRIDIUM 33 DEB          
1 34985U 97051NR  26065.83227270  .00003110  00000+0  93196-3 0  9996
2 34985  86.3734  20.9824 0019759 313.0200  75.6717 14.42452206883874
IRIDIUM 33 DEB          
1 35051U 97051NX  26062.19624420  .00002674  00000+0  71394-3 0  9995
2 35051  86.3285 333.7982 0007886 165.3511 194.7923 14.48072669881609
IRIDIUM 33 DEB          
1 35052U 97051NY  26064.21638460  .00000824  00000+0  26249-3 0  9994
2 35052  86.3362 345.1291 0011729 161.9865 198.1751 14.38621550884610
IRIDIUM 33 DEB          
1 35080U 97051PF  26064.57840064  .00134780  00000+0  97196-2 0  9996
2 35080  86.2097  12.3496 0029534 232.6743 127.1799 15.03148158709249
IRIDIUM 33 DEB          
1 35297U 97051PM  26065.16100321  .00002737  00000+0  76888-3 0  9999
2 35297  86.3872  27.1281 0013699 221.0232 138.9941 14.45593938716317
IRIDIUM 33 DEB          
1 35299U 97051PP  26064.79482022  .00005388  00000+0  16208-2 0  9994
2 35299  86.2922 357.0122 0053799 186.1197 203.6019 14.41641336875278
IRIDIUM 33 DEB          
1 35480U 97051QA  26064.06023190  .00003114  00000+0  79407-3 0  9999
2 35480  86.3617 349.2201 0012822 180.2098 179.9103 14.50261027882249
IRIDIUM 33 DEB          
1 35484U 97051QE  26050.19184175  .00037506  00000+0  25740-2 0  9995
2 35484  86.3587 320.5585 0011587 239.1626 120.8470 15.05777687630433
IRIDIUM 33 DEB          
1 35488U 97051QJ  26065.82009417  .00014552  00000+0  16794-2 0  9995
2 35488  86.3191 262.0359 0027494 100.5701 259.8622 14.85267719895135
IRIDIUM 33 DEB          
1 35616U 97051QN  26065.10425866  .00011975  00000+0  14121-2 0  9997
2 35616  86.3525 307.6388 0006641 247.1462 112.9061 14.84646370888108
IRIDIUM 33 DEB          
1 35618U 97051QQ  26063.46654887  .00002274  00000+0  54635-3 0  9990
2 35618  86.3417 317.7694 0030547 101.7612 258.7023 14.52714174665806
